NORAD_CAT_ID,OBJECT_NAME,OBJECT_TYPE,EPOCH,MEAN_MOTION,ECCENTRICITY,INCLINATION,RA_OF_ASC_NODE,ARG_OF_PERICENTER,MEAN_ANOMALY,BSTAR,MEAN_MOTION_DOT,MEAN_MOTION_DDOT,TLE_LINE0,TLE_LINE1,TLE_LINE2,SEMIMAJOR_AXIS,PERIOD,APOGEE,PERIGEE,DECAYED
50822.0,STARLINK-3343,PAYLOAD,2024-03-06 17:32:01,15.0884394,0.0001393,53.216,219.5011,88.4454,271.6698,2.3692e-05,8.9e-07,0.0,0 STARLINK-3343,1 50822U 22001V   24066.73057104  .00000089  00000-0  23692-4 0  9990,2 50822  53.2160 219.5011 0001393  88.4454 271.6698 15.08843940121009,6917.868,95.437,540.697,538.77,0.0
50822.0,STARLINK-3343,PAYLOAD,2024-03-07 03:04:19,15.08855074,0.0001244,53.2158,217.7162,79.2488,280.8645,0.0002465,3.639e-05,0.0,0 STARLINK-3343,1 50822U 22001V   24067.12800402  .00003639  00000-0  24650-3 0  9999,2 50822  53.2158 217.7162 0001244  79.2488 280.8645 15.08855074121064,6917.834,95.437,540.56,538.839,0.0
50822.0,STARLINK-3343,PAYLOAD,2024-03-07 14:12:02,15.08828161,0.0001408,53.2157,215.6349,87.8528,272.2625,5.1434e-06,-2.06e-06,0.0,0 STARLINK-3343,1 50822U 22001V   24067.59170104 -.00000206  00000-0  51434-5 0  9999,2 50822  53.2157 215.6349 0001408  87.8528 272.2625 15.08828161119886,6917.917,95.438,540.756,538.808,0.0
50822.0,STARLINK-3343,PAYLOAD,2024-03-08 09:16:40,15.08842427,0.0001537,53.2155,212.0653,107.4818,252.6342,-8.923e-05,-1.708e-05,0.0,0 STARLINK-3343,1 50822U 22001V   24068.38657669 -.00001708  00000-0 -89230-4 0  9996,2 50822  53.2155 212.0653 0001537 107.4818 252.6342 15.08842427121250,6917.873,95.437,540.801,538.675,0.0
50822.0,STARLINK-3343,PAYLOAD,2024-03-09 02:45:54,15.08847939,0.0001439,53.2154,208.7962,94.1186,265.9971,0.00033862,5.106e-05,0.0,0 STARLINK-3343,1 50822U 22001V   24069.11521630  .00005106  00000-0  33862-3 0  9999,2 50822  53.2154 208.7962 0001439  94.1186 265.9971 15.08847939120117,6917.856,95.437,540.717,538.726,0.0
50822.0,STARLINK-3343,PAYLOAD,2024-03-10 02:36:41,15.08844604,0.0001407,53.2159,204.3314,111.5259,248.5883,0.00023282,3.42e-05,0.0,0 STARLINK-3343,1 50822U 22001V   24070.10881707  .00003420  00000-0  23282-3 0  9996,2 50822  53.2159 204.3314 0001407 111.5259 248.5883 15.08844604121515,6917.866,95.437,540.705,538.758,0.0
50822.0,STARLINK-3343,PAYLOAD,2024-03-10 12:09:01,15.08836067,0.0001625,53.2165,202.5517,86.0769,274.0409,2.3009e-05,7.8e-07,0.0,0 STARLINK-3343,1 50822U 22001V   24070.50626288  .00000078  00000-0  23009-4 0  9995,2 50822  53.2165 202.5517 0001625  86.0769 274.0409 15.08836067121579,6917.892,95.438,540.882,538.633,0.0
50822.0,STARLINK-3343,PAYLOAD,2024-03-10 15:19:47,15.08837966,0.0001376,53.2132,201.9521,96.5836,263.5313,5.0955e-05,5.23e-06,0.0,0 STARLINK-3343,1 50822U 22001V   24070.63874023  .00000523  00000-0  50955-4 0  9996,2 50822  53.2132 201.9521 0001376  96.5836 263.5313 15.08837966120345,6917.887,95.438,540.704,538.8,0.0
50822.0,STARLINK-3343,PAYLOAD,2024-03-10 18:30:34,15.08827201,0.0001772,53.2116,201.3584,90.3679,269.7516,-8.4519e-05,-1.633e-05,0.0,0 STARLINK-3343,1 50822U 22001V   24070.77122894 -.00001633  00000-0 -84519-4 0  9991,2 50822  53.2116 201.3584 0001772  90.3679 269.7516 15.08827201121612,6917.92,95.438,541.01,538.559,0.0
50822.0,STARLINK-3343,PAYLOAD,2024-03-11 11:59:48,15.08835419,0.0001351,53.2159,198.0874,81.576,278.5385,0.00013872,1.92e-05,0.0,0 STARLINK-3343,1 50822U 22001V   24071.49986795  .00001920  00000-0  13872-3 0  9999,2 50822  53.2159 198.0874 0001351  81.5760 278.5385 15.08835419121723,6917.894,95.438,540.694,538.825,0.0
50822.0,STARLINK-3343,PAYLOAD,2024-03-11 15:10:34,15.08845832,0.0001614,53.2151,197.4931,84.2168,275.9008,0.00032175,4.837e-05,0.0,0 STARLINK-3343,1 50822U 22001V   24071.63234589  .00004837  00000-0  32175-3 0  9999,2 50822  53.2151 197.4931 0001614  84.2168 275.9008 15.08845832120492,6917.863,95.437,540.844,538.611,0.0
50822.0,STARLINK-3343,PAYLOAD,2024-03-11 18:21:20,15.08844408,0.0001424,53.2161,196.8995,82.6861,277.4293,0.00041561,6.333e-05,0.0,0 STARLINK-3343,1 50822U 22001V   24071.76482573  .00006333  00000-0  41561-3 0  9993,2 50822  53.2161 196.8995 0001424  82.6861 277.4293 15.08844408121769,6917.867,95.437,540.717,538.747,0.0
50822.0,STARLINK-3343,PAYLOAD,2024-03-12 11:50:35,15.08838489,0.0001544,53.2156,193.6287,105.2543,254.862,0.0001698,2.415e-05,0.0,0 STARLINK-3343,1 50822U 22001V   24072.49346630  .00002415  00000-0  16980-3 0  9991,2 50822  53.2156 193.6287 0001544 105.2543 254.8620 15.08838489121871,6917.885,95.438,540.818,538.682,0.0
50822.0,STARLINK-3343,PAYLOAD,2024-03-12 15:01:21,15.08837927,0.0001379,53.2154,193.0344,86.6149,273.5001,0.00013505,1.862e-05,0.0,0 STARLINK-3343,1 50822U 22001V   24072.62594787  .00001862  00000-0  13505-3 0  9999,2 50822  53.2154 193.0344 0001379  86.6149 273.5001 15.08837927120648,6917.887,95.438,540.706,538.798,0.0
50822.0,STARLINK-3343,PAYLOAD,2024-03-13 14:52:08,15.08844429,0.0001356,53.2159,188.5758,86.0538,274.0609,2.8061e-05,1.59e-06,0.0,0 STARLINK-3343,1 50822U 22001V   24073.61954373  .00000159  00000-0  28061-4 0  9992,2 50822  53.2159 188.5758 0001356  86.0538 274.0609 15.08844429120793,6917.867,95.437,540.67,538.794,0.0
50822.0,STARLINK-3343,PAYLOAD,2024-03-14 06:45:59,15.08843569,0.0001332,53.2158,185.6022,88.0482,272.0662,8.4129e-05,1.051e-05,0.0,0 STARLINK-3343,1 50822U 22001V   24074.28194287  .00001051  00000-0  84129-4 0  9995,2 50822  53.2158 185.6022 0001332  88.0482 272.0662 15.08843569120890,6917.869,95.437,540.656,538.813,0.0
50822.0,STARLINK-3343,PAYLOAD,2024-03-14 11:32:09,15.08837839,0.0001335,53.2154,184.7085,79.6215,280.4928,4.3402e-05,4.03e-06,0.0,0 STARLINK-3343,1 50822U 22001V   24074.48066636  .00000403  00000-0  43402-4 0  9992,2 50822  53.2154 184.7085 0001335  79.6215 280.4928 15.08837839122172,6917.887,95.438,540.676,538.828,0.0
50822.0,STARLINK-3343,PAYLOAD,2024-03-15 11:22:56,15.08840914,0.0001277,53.2166,180.2484,73.9,286.2133,6.2238e-05,7.03e-06,0.0,0 STARLINK-3343,1 50822U 22001V   24075.47426878  .00000703  00000-0  62238-4 0  9991,2 50822  53.2166 180.2484 0001277  73.9000 286.2133 15.08840914121071,6917.878,95.437,540.626,538.859,0.0
50822.0,STARLINK-3343,PAYLOAD,2024-03-16 12:49:07,15.08837365,0.000143,53.2176,175.4901,107.039,253.0759,8.3194e-05,1.036e-05,0.0,0 STARLINK-3343,1 50822U 22001V   24076.53411003  .00001036  00000-0  83194-4 0  9997,2 50822  53.2176 175.4901 0001430 107.0390 253.0759 15.08837365122482,6917.888,95.438,540.743,538.764,0.0
50822.0,STARLINK-3343,PAYLOAD,2024-03-17 12:39:53,15.08842346,0.0001502,53.2179,171.0305,103.1451,256.9708,9.3312e-05,1.197e-05,0.0,0 STARLINK-3343,1 50822U 22001V   24077.52770748  .00001197  00000-0  93312-4 0  9992,2 50822  53.2179 171.0305 0001502 103.1451 256.9708 15.08842346121389,6917.873,95.437,540.777,538.699,0.0
50822.0,STARLINK-3343,PAYLOAD,2024-03-18 12:30:40,15.08841606,0.0001473,53.2177,166.5695,104.3937,255.7219,0.00010161,1.33e-05,0.0,0 STARLINK-3343,1 50822U 22001V   24078.52130696  .00001330  00000-0  10161-3 0  9994,2 50822  53.2177 166.5695 0001473 104.3937 255.7219 15.08841606122784,6917.875,95.437,540.759,538.721,0.0
50822.0,STARLINK-3343,PAYLOAD,2024-03-19 12:21:27,15.08847435,0.0001446,53.217,162.1087,93.9507,266.1651,7.6808e-05,9.35e-06,0.0,0 STARLINK-3343,1 50822U 22001V   24079.51490347  .00000935  00000-0  76808-4 0  9997,2 50822  53.2170 162.1087 0001446  93.9507 266.1651 15.08847435121680,6917.858,95.437,540.723,538.722,0.0
50822.0,STARLINK-3343,PAYLOAD,2024-03-20 10:36:52,15.08832934,0.0001391,53.2162,157.9394,109.0317,251.0826,-5.2041e-05,-1.116e-05,0.0,0 STARLINK-3343,1 50822U 22001V   24080.44227544 -.00001116  00000-0 -52041-4 0  9995,2 50822  53.2162 157.9394 0001391 109.0317 251.0826 15.08832934123071,6917.902,95.438,540.729,538.805,0.0
50822.0,STARLINK-3343,PAYLOAD,2024-03-20 12:12:16,15.08828436,0.0001302,53.2163,157.6432,91.8204,268.2937,-8.0275e-05,-1.565e-05,0.0,0 STARLINK-3343,1 50822U 22001V   24080.50852047 -.00001565  00000-0 -80275-4 0  9992,2 50822  53.2163 157.6432 0001302  91.8204 268.2937 15.08828436121834,6917.916,95.438,540.681,538.88,0.0
50822.0,STARLINK-3343,PAYLOAD,2024-03-20 21:44:34,15.08837488,0.0001262,53.2165,155.8592,69.3932,290.7195,-1.8737e-05,-5.86e-06,0.0,0 STARLINK-3343,1 50822U 22001V   24080.90595465 -.00000586  00000-0 -18737-4 0  9990,2 50822  53.2165 155.8592 0001262  69.3932 290.7195 15.08837488121895,6917.888,95.438,540.626,538.88,0.0
50822.0,STARLINK-3343,PAYLOAD,2024-03-21 12:03:02,15.08844802,0.0001451,53.2165,153.19,100.3052,259.8104,6.4076e-05,7.32e-06,0.0,0 STARLINK-3343,1 50822U 22001V   24081.50211001  .00000732  00000-0  64076-4 0  9996,2 50822  53.2165 153.1900 0001451 100.3052 259.8104 15.08844802123232,6917.866,95.437,540.734,538.727,0.0
50822.0,STARLINK-3343,PAYLOAD,2024-03-22 11:53:48,15.08843301,0.0001146,53.2156,148.7277,86.2882,273.8241,0.0003555,5.375e-05,0.0,0 STARLINK-3343,1 50822U 22001V   24082.49570397  .00005375  00000-0  35550-3 0  9993,2 50822  53.2156 148.7277 0001146  86.2882 273.8241 15.08843301122132,6917.87,95.437,540.528,538.943,0.0
50822.0,STARLINK-3343,PAYLOAD,2024-03-23 11:44:36,15.08832988,0.000148,53.2159,144.2693,106.5167,253.5988,-0.00016457,-2.906e-05,0.0,0 STARLINK-3343,1 50822U 22001V   24083.48931694 -.00002906  00000-0 -16457-3 0  9998,2 50822  53.2159 144.2693 0001480 106.5167 253.5988 15.08832988123538,6917.902,95.438,540.791,538.743,0.0
50822.0,STARLINK-3343,PAYLOAD,2024-03-23 13:20:00,15.08832905,0.0001479,53.216,143.9718,103.2991,256.8166,-0.00015807,-2.802e-05,0.0,0 STARLINK-3343,1 50822U 22001V   24083.55555749 -.00002802  00000-0 -15807-3 0  9992,2 50822  53.2160 143.9718 0001479 103.2991 256.8166 15.08832905122296,6917.902,95.438,540.79,538.744,0.0
50822.0,STARLINK-3343,PAYLOAD,2024-03-24 10:00:00,15.08841824,0.0001542,53.2154,140.1077,88.4968,271.6201,6.6814e-05,7.76e-06,0.0,0 STARLINK-3343,1 50822U 22001V   24084.41667490  .00000776  00000-0  66814-4 0  9996,2 50822  53.2154 140.1077 0001542  88.4968 271.6201 15.08841824123673,6917.875,95.437,540.807,538.673,0.0
